{
  "type": "FeatureCollection",
  "features": [
    {
      "type": "Feature",
      "properties": {
        "norad_id": 66582,
        "name": "STARLINK-35746",
        "group": "last-30-days",
        "lat": 40.782023155719386,
        "lon": -80.50214736216707,
        "alt_km": 355.7399448599872,
        "timestamp": "2025-12-04T21:36:14.653148+00:00",
        "meta_object_name": "STARLINK-35746",
        "meta_object_id": "2025-268AB",
        "meta_epoch": "2025-12-04T14:00:01.000224",
        "meta_mean_motion": 15.70587784,
        "meta_eccentricity": 0.00014979,
        "meta_inclination": 42.9989,
        "meta_ra_of_asc_node": 169.1899,
        "meta_arg_of_pericenter": 272.4125,
        "meta_mean_anomaly": 201.4286,
        "meta_ephemeris_type": 0,
        "meta_classification_type": "U",
        "meta_norad_cat_id": 66582,
        "meta_element_set_no": 999,
        "meta_rev_at_epoch": 335,
        "meta_bstar": -0.017088489,
        "meta_mean_motion_dot": -0.01923274,
        "meta_mean_motion_ddot": 0,
        "tle_line1": "1 66582U 25268AB  25338.58334491 -.01923274  00000+0 -17088-1 0  9992",
        "tle_line2": "2 66582  42.9989 169.1899 0001497 272.4125 201.4286 15.70587784  3353"
      },
      "geometry": {
        "type": "Point",
        "coordinates": [
          -80.50214736216707,
          40.782023155719386
        ]
      }
    },
    {
      "type": "Feature",
      "properties": {
        "norad_id": 66583,
        "name": "STARLINK-35941",
        "group": "last-30-days",
        "lat": 40.262103289445704,
        "lon": -78.07818239382044,
        "alt_km": 355.78985078633104,
        "timestamp": "2025-12-04T21:36:14.653158+00:00",
        "meta_object_name": "STARLINK-35941",
        "meta_object_id": "2025-268AC",
        "meta_epoch": "2025-12-04T14:00:01.000224",
        "meta_mean_motion": 15.70584342,
        "meta_eccentricity": 0.00014838,
        "meta_inclination": 42.9989,
        "meta_ra_of_asc_node": 169.1852,
        "meta_arg_of_pericenter": 270.4973,
        "meta_mean_anomaly": 205.2623,
        "meta_ephemeris_type": 0,
        "meta_classification_type": "U",
        "meta_norad_cat_id": 66583,
        "meta_element_set_no": 999,
        "meta_rev_at_epoch": 335,
        "meta_bstar": -0.017043166,
        "meta_mean_motion_dot": -0.01918495,
        "meta_mean_motion_ddot": 0,
        "tle_line1": "1 66583U 25268AC  25338.58334491 -.01918495  00000+0 -17043-1 0  9993",
        "tle_line2": "2 66583  42.9989 169.1852 0001483 270.4973 205.2623 15.70584342  3351"
      },
      "geometry": {
        "type": "Point",
        "coordinates": [
          -78.07818239382044,
          40.262103289445704
        ]
      }
    },
    {
      "type": "Feature",
      "properties": {
        "norad_id": 66584,
        "name": "STARLINK-35939",
        "group": "last-30-days",
        "lat": 39.69224723125887,
        "lon": -75.69345681183978,
        "alt_km": 355.8283492337787,
        "timestamp": "2025-12-04T21:36:14.653168+00:00",
        "meta_object_name": "STARLINK-35939",
        "meta_object_id": "2025-268AD",
        "meta_epoch": "2025-12-04T14:00:01.000224",
        "meta_mean_motion": 15.70584775,
        "meta_eccentricity": 0.00014692,
        "meta_inclination": 42.9988,
        "meta_ra_of_asc_node": 169.1806,
        "meta_arg_of_pericenter": 266.6559,
        "meta_mean_anomaly": 211.0206,
        "meta_ephemeris_type": 0,
        "meta_classification_type": "U",
        "meta_norad_cat_id": 66584,
        "meta_element_set_no": 999,
        "meta_rev_at_epoch": 335,
        "meta_bstar": -0.017052896,
        "meta_mean_motion_dot": -0.01919486,
        "meta_mean_motion_ddot": 0,
        "tle_line1": "1 66584U 25268AD  25338.58334491 -.01919486  00000+0 -17053-1 0  9996",
        "tle_line2": "2 66584  42.9988 169.1806 0001469 266.6559 211.0206 15.70584775  3353"
      },
      "geometry": {
        "type": "Point",
        "coordinates": [
          -75.69345681183978,
          39.69224723125887
        ]
      }
    },
    {
      "type": "Feature",
      "properties": {
        "norad_id": 66585,
        "name": "STARLINK-35963",
        "group": "last-30-days",
        "lat": 39.07441410227591,
        "lon": -73.34932708112913,
        "alt_km": 355.87445826329804,
        "timestamp": "2025-12-04T21:36:14.653181+00:00",
        "meta_object_name": "STARLINK-35963",
        "meta_object_id": "2025-268AE",
        "meta_epoch": "2025-12-04T14:00:01.000224",
        "meta_mean_motion": 15.7058964,
        "meta_eccentricity": 0.00014181,
        "meta_inclination": 42.9988,
        "meta_ra_of_asc_node": 169.1764,
        "meta_arg_of_pericenter": 267.8066,
        "meta_mean_anomaly": 211.7791,
        "meta_ephemeris_type": 0,
        "meta_classification_type": "U",
        "meta_norad_cat_id": 66585,
        "meta_element_set_no": 999,
        "meta_rev_at_epoch": 335,
        "meta_bstar": -0.017050538,
        "meta_mean_motion_dot": -0.01919562,
        "meta_mean_motion_ddot": 0,
        "tle_line1": "1 66585U 25268AE  25338.58334491 -.01919562  00000+0 -17051-1 0  9990",
        "tle_line2": "2 66585  42.9988 169.1764 0001418 267.8066 211.7791 15.70589640  3359"
      },
      "geometry": {
        "type": "Point",
        "coordinates": [
          -73.34932708112913,
          39.07441410227591
        ]
      }
    },
    {
      "type": "Feature",
      "properties": {
        "norad_id": 66586,
        "name": "TJS-21",
        "group": "last-30-days",
        "lat": -19.840621668176105,
        "lon": 8.728818951737244,
        "alt_km": 385.9113474162168,
        "timestamp": "2025-12-04T21:36:14.653197+00:00",
        "meta_object_name": "TJS-21",
        "meta_object_id": "2025-269A",
        "meta_epoch": "2025-11-22T00:38:56.616288",
        "meta_mean_motion": 2.0099221,
        "meta_eccentricity": 0.75179873,
        "meta_inclination": 51.0366,
        "meta_ra_of_asc_node": 174.7096,
        "meta_arg_of_pericenter": 225.0489,
        "meta_mean_anomaly": 41.6572,
        "meta_ephemeris_type": 0,
        "meta_classification_type": "U",
        "meta_norad_cat_id": 66586,
        "meta_element_set_no": 999,
        "meta_rev_at_epoch": 2,
        "meta_bstar": 0.00053569978,
        "meta_mean_motion_dot": 3.197e-05,
        "meta_mean_motion_ddot": 0,
        "tle_line1": "1 66586U 25269A   25326.02704417  .00003197  00000+0  53570-3 0  9990",
        "tle_line2": "2 66586  51.0366 174.7096 7517987 225.0489  41.6572  2.00992210    24"
      },
      "geometry": {
        "type": "Point",
        "coordinates": [
          8.728818951737244,
          -19.840621668176105
        ]
      }
    },
    {
      "type": "Feature",
      "properties": {
        "norad_id": 66587,
        "name": "CZ-3B R/B",
        "group": "last-30-days",
        "lat": 0.735888040603797,
        "lon": 171.97795062017084,
        "alt_km": 17439.30861119972,
        "timestamp": "2025-12-04T21:36:14.653215+00:00",
        "meta_object_name": "CZ-3B R/B",
        "meta_object_id": "2025-269B",
        "meta_epoch": "2025-12-02T10:16:46.437600",
        "meta_mean_motion": 2.0223182,
        "meta_eccentricity": 0.75203475,
        "meta_inclination": 51.3575,
        "meta_ra_of_asc_node": 172.0321,
        "meta_arg_of_pericenter": 226.8728,
        "meta_mean_anomaly": 39.3228,
        "meta_ephemeris_type": 0,
        "meta_classification_type": "U",
        "meta_norad_cat_id": 66587,
        "meta_element_set_no": 999,
        "meta_rev_at_epoch": 24,
        "meta_bstar": 0.0019543247,
        "meta_mean_motion_dot": 0.00047329,
        "meta_mean_motion_ddot": -2.45602e-07,
        "tle_line1": "1 66587U 25269B   25336.42831525  .00047329 -24560-6  19543-2 0  9998",
        "tle_line2": "2 66587  51.3575 172.0321 7520347 226.8728  39.3228  2.02231820   242"
      },
      "geometry": {
        "type": "Point",
        "coordinates": [
          171.97795062017084,
          0.735888040603797
        ]
      }
    },
    {
      "type": "Feature",
      "properties": {
        "norad_id": 66588,
        "name": "STARLINK-36076",
        "group": "last-30-days",
        "lat": -31.337071711822947,
        "lon": 100.03915000710893,
        "alt_km": 344.87628141484674,
        "timestamp": "2025-12-04T21:36:14.653227+00:00",
        "meta_object_name": "STARLINK-36076",
        "meta_object_id": "2025-270A",
        "meta_epoch": "2025-12-04T14:32:49.725312",
        "meta_mean_motion": 15.75192132,
        "meta_eccentricity": 0.00017896,
        "meta_inclination": 42.9977,
        "meta_ra_of_asc_node": 241.019,
        "meta_arg_of_pericenter": 230.5888,
        "meta_mean_anomaly": 129.4823,
        "meta_ephemeris_type": 0,
        "meta_classification_type": "U",
        "meta_norad_cat_id": 66588,
        "meta_element_set_no": 999,
        "meta_rev_at_epoch": 307,
        "meta_bstar": 0.0030819661,
        "meta_mean_motion_dot": 0.0050583,
        "meta_mean_motion_ddot": 0,
        "tle_line1": "1 66588U 25270A   25338.60613108  .00505830  00000+0  30820-2 0  9990",
        "tle_line2": "2 66588  42.9977 241.0190 0001789 230.5888 129.4823 15.75192132  3074"
      },
      "geometry": {
        "type": "Point",
        "coordinates": [
          100.03915000710893,
          -31.337071711822947
        ]
      }
    }
  ]
}